[{"OBJECT_NAME":"JILIN-1 GAOFEN 3A","OBJECT_ID":"2019-032C","EPOCH":"2026-03-09T17:53:24.364896","MEAN_MOTION":15.3027131,"ECCENTRICITY":0.00026181,"INCLINATION":44.9746,"RA_OF_ASC_NODE":183.2861,"ARG_OF_PERICENTER":111.29,"MEAN_ANOMALY":248.8263,"EPHEMERIS_TYPE":0,"CLASSIFICATION_TYPE":"U","NORAD_CAT_ID":44312,"ELEMENT_SET_NO":999,"REV_AT_EPOCH":37259,"BSTAR":0.00055381133,"MEAN_MOTION_DOT":0.00016264,"MEAN_MOTION_DDOT":0},{"OBJECT_NAME":"STARLINK-34635","OBJECT_ID":"2025-147G","EPOCH":"2026-03-09T18:02:31.174944","MEAN_MOTION":15.30196292,"ECCENTRICITY":6.856e-5,"INCLINATION":53.1591,"RA_OF_ASC_NODE":242.295,"ARG_OF_PERICENTER":72.7511,"MEAN_ANOMALY":287.3564,"EPHEMERIS_TYPE":0,"CLASSIFICATION_TYPE":"U","NORAD_CAT_ID":64761,"ELEMENT_SET_NO":999,"REV_AT_EPOCH":3876,"BSTAR":0.00076429501,"MEAN_MOTION_DOT":0.00022343,"MEAN_MOTION_DDOT":0}]
